start=new Date('2023-06-11T00:00:00.000Z').valueOf();
sats=[{"GP_ID":"233617071","CENTER_NAME":"EARTH","DECAY_DATE":null,"REV_AT_EPOCH":"18392","TIME_SYSTEM":"UTC","REF_FRAME":"TEME","NORAD_CAT_ID":"45205","OBJECT_TYPE":"PAYLOAD","MEAN_ELEMENT_THEORY":"SGP4","LAUNCH_DATE":"2020-02-17","SITE":"AFETR","FILE":"3929709","ECCENTRICITY":"0.00011230","PERIOD":"95.593","ARG_OF_PERICENTER":"88.8564","MEAN_ANOMALY":"271.2554","EPHEMERIS_TYPE":"0","APOAPSIS":"548.023","MEAN_MOTION_DOT":"-0.00000003","COUNTRY_CODE":"US","SEMIMAJOR_AXIS":"6925.380","ELEMENT_SET_NO":"999","RA_OF_ASC_NODE":"210.4800","TLE_LINE1":"1 45205U 20012AD  23161.41808777 -.00000003  00000-0  18686-4 0  9993","MEAN_MOTION":"15.06389685","PERIAPSIS":"546.467","OBJECT_NAME":"STARLINK-1208","RCS_SIZE":"LARGE","BSTAR":"0.00001868600000","MEAN_MOTION_DDOT":"0.0000000000000","EPOCH":"2023-06-10T10:02:02.783328","TLE_LINE2":"2 45205  53.0514 210.4800 0001123  88.8564 271.2554 15.06389685183927","INCLINATION":"53.0514","CLASSIFICATION_TYPE":"U","OBJECT_ID":"2020-012AD"},{"MEAN_ELEMENT_THEORY":"SGP4","LAUNCH_DATE":"2020-02-17","OBJECT_TYPE":"PAYLOAD","FILE":"3929969","SITE":"AFETR","PERIOD":"95.592","ECCENTRICITY":"0.00010540","ARG_OF_PERICENTER":"96.0865","MEAN_ANOMALY":"264.0244","EPHEMERIS_TYPE":"0","CENTER_NAME":"EARTH","GP_ID":"233650142","DECAY_DATE":null,"TIME_SYSTEM":"UTC","REV_AT_EPOCH":"18328","NORAD_CAT_ID":"45206","REF_FRAME":"TEME","OBJECT_NAME":"STARLINK-1209","MEAN_MOTION":"15.06395923","PERIAPSIS":"546.496","RCS_SIZE":"LARGE","BSTAR":"0.00003218900000","MEAN_MOTION_DDOT":"0.0000000000000","TLE_LINE2":"2 45206  53.0521 188.8667 0001054  96.0865 264.0244 15.06395923183280","INCLINATION":"53.0521","EPOCH":"2023-06-10T18:39:32.658048","CLASSIFICATION_TYPE":"U","OBJECT_ID":"2020-012AE","APOAPSIS":"547.956","MEAN_MOTION_DOT":"0.00000198","COUNTRY_CODE":"US","SEMIMAJOR_AXIS":"6925.361","ELEMENT_SET_NO":"999","TLE_LINE1":"1 45206U 20012AE  23161.77746132  .00000198  00000-0  32189-4 0  9997","RA_OF_ASC_NODE":"188.8667"},{"EPOCH":"2023-06-10T20:07:07.332384","INCLINATION":"53.0526","TLE_LINE2":"2 45207  53.0526 208.5944 0001005  96.7943 263.3161 15.06395232183962","CLASSIFICATION_TYPE":"U","OBJECT_ID":"2020-012AF","PERIAPSIS":"546.532","MEAN_MOTION":"15.06395232","OBJECT_NAME":"STARLINK-1210","RCS_SIZE":"LARGE","BSTAR":"0.00007609400000","MEAN_MOTION_DDOT":"0.0000000000000","RA_OF_ASC_NODE":"208.5944","TLE_LINE1":"1 45207U 20012AF  23161.83827931  .00000852  00000-0  76094-4 0  9992","APOAPSIS":"547.924","MEAN_MOTION_DOT":"0.00000852","COUNTRY_CODE":"US","SEMIMAJOR_AXIS":"6925.363","ELEMENT_SET_NO":"999","ARG_OF_PERICENTER":"96.7943","MEAN_ANOMALY":"263.3161","EPHEMERIS_TYPE":"0","OBJECT_TYPE":"PAYLOAD","LAUNCH_DATE":"2020-02-17","MEAN_ELEMENT_THEORY":"SGP4","SITE":"AFETR","FILE":"3929969","ECCENTRICITY":"0.00010050","PERIOD":"95.592","REF_FRAME":"TEME","NORAD_CAT_ID":"45207","GP_ID":"233650392","CENTER_NAME":"EARTH","DECAY_DATE":null,"REV_AT_EPOCH":"18396","TIME_SYSTEM":"UTC"},{"TLE_LINE1":"1 45208U 20012AG  23161.91667824  .00347232  00000-0  22829-2 0  9996","RA_OF_ASC_NODE":"184.8673","COUNTRY_CODE":"US","MEAN_MOTION_DOT":"0.00347232","APOAPSIS":"348.892","ELEMENT_SET_NO":"999","SEMIMAJOR_AXIS":"6725.207","CLASSIFICATION_TYPE":"U","INCLINATION":"53.0098","TLE_LINE2":"2 45208  53.0098 184.8673 0002705 274.8273 190.3256 15.74143220  1309","EPOCH":"2023-06-10T22:00:00.999936","OBJECT_ID":"2020-012AG","RCS_SIZE":"LARGE","OBJECT_NAME":"STARLINK-1211","PERIAPSIS":"345.253","MEAN_MOTION":"15.74143220","MEAN_MOTION_DDOT":"0.0000000000000","BSTAR":"0.00228290000000","NORAD_CAT_ID":"45208","REF_FRAME":"TEME","DECAY_DATE":null,"CENTER_NAME":"EARTH","GP_ID":"233650644","TIME_SYSTEM":"UTC","REV_AT_EPOCH":"130","MEAN_ANOMALY":"190.3256","ARG_OF_PERICENTER":"274.8273","EPHEMERIS_TYPE":"0","FILE":"3929969","SITE":"AFETR","MEAN_ELEMENT_THEORY":"SGP4","LAUNCH_DATE":"2020-02-17","OBJECT_TYPE":"PAYLOAD","PERIOD":"91.478","ECCENTRICITY":"0.00027050"},{"REF_FRAME":"TEME","NORAD_CAT_ID":"45210","REV_AT_EPOCH":"18385","TIME_SYSTEM":"UTC","DECAY_DATE":null,"GP_ID":"233651389","CENTER_NAME":"EARTH","EPHEMERIS_TYPE":"0","MEAN_ANOMALY":"272.9444","ARG_OF_PERICENTER":"87.1619","ECCENTRICITY":"0.00006430","PERIOD":"95.592","SITE":"AFETR","FILE":"3929969","OBJECT_TYPE":"PAYLOAD","MEAN_ELEMENT_THEORY":"SGP4","LAUNCH_DATE":"2020-02-17","RA_OF_ASC_NODE":"208.5715","TLE_LINE1":"1 45210U 20012AJ  23161.84196498  .00001082  00000-0  91501-4 0  9990","ELEMENT_SET_NO":"999","SEMIMAJOR_AXIS":"6925.363","COUNTRY_CODE":"US","MEAN_MOTION_DOT":"0.00001082","APOAPSIS":"547.674","OBJECT_ID":"2020-012AJ","CLASSIFICATION_TYPE":"U","EPOCH":"2023-06-10T20:12:25.774272","INCLINATION":"53.0527","TLE_LINE2":"2 45210  53.0527 208.5715 0000643  87.1619 272.9444 15.06395151183852","MEAN_MOTION_DDOT":"0.0000000000000","BSTAR":"0.00009150100000","RCS_SIZE":"LARGE","PERIAPSIS":"546.783","MEAN_MOTION":"15.06395151","OBJECT_NAME":"STARLINK-1219"},{"REF_FRAME":"TEME","NORAD_CAT_ID":"45212","REV_AT_EPOCH":"18387","TIME_SYSTEM":"UTC","DECAY_DATE":null,"CENTER_NAME":"EARTH","GP_ID":"233617322","EPHEMERIS_TYPE":"0","MEAN_ANOMALY":"275.9983","ARG_OF_PERICENTER":"84.1143","ECCENTRICITY":"0.00012010","PERIOD":"95.592","SITE":"AFETR","FILE":"3929709","OBJECT_TYPE":"PAYLOAD","MEAN_ELEMENT_THEORY":"SGP4","LAUNCH_DATE":"2020-02-17","RA_OF_ASC_NODE":"209.9149","TLE_LINE1":"1 45212U 20012AL  23161.54340682 -.00002071  00000-0 -12020-3 0  9994","ELEMENT_SET_NO":"999","SEMIMAJOR_AXIS":"6925.360","COUNTRY_CODE":"US","MEAN_MOTION_DOT":"-0.00002071","APOAPSIS":"548.056","OBJECT_ID":"2020-012AL","CLASSIFICATION_TYPE":"U","EPOCH":"2023-06-10T13:02:30.349248","INCLINATION":"53.0529","TLE_LINE2":"2 45212  53.0529 209.9149 0001201  84.1143 275.9983 15.06396388183878","MEAN_MOTION_DDOT":"0.0000000000000","BSTAR":"-0.00012020000000","RCS_SIZE":"LARGE","MEAN_MOTION":"15.06396388","PERIAPSIS":"546.393","OBJECT_NAME":"STARLINK-1231"},{"REV_AT_EPOCH":"18583","TIME_SYSTEM":"UTC","DECAY_DATE":null,"GP_ID":"233649893","CENTER_NAME":"EARTH","REF_FRAME":"TEME","NORAD_CAT_ID":"45213","ECCENTRICITY":"0.00013990","PERIOD":"92.383","SITE":"AFETR","FILE":"3929969","OBJECT_TYPE":"PAYLOAD","LAUNCH_DATE":"2020-02-17","MEAN_ELEMENT_THEORY":"SGP4","EPHEMERIS_TYPE":"0","MEAN_ANOMALY":"317.3953","ARG_OF_PERICENTER":"42.7167","ELEMENT_SET_NO":"999","SEMIMAJOR_AXIS":"6769.490","COUNTRY_CODE":"US","MEAN_MOTION_DOT":"0.00041801","APOAPSIS":"392.303","RA_OF_ASC_NODE":"76.6112","TLE_LINE1":"1 45213U 20012AM  23161.75820825  .00041801  00000-0  53673-3 0  9991","MEAN_MOTION_DDOT":"0.0000000000000","BSTAR":"0.00053673000000","RCS_SIZE":"LARGE","PERIAPSIS":"390.408","MEAN_MOTION":"15.58722447","OBJECT_NAME":"STARLINK-1232","OBJECT_ID":"2020-012AM","CLASSIFICATION_TYPE":"U","EPOCH":"2023-06-10T18:11:49.192800","TLE_LINE2":"2 45213  53.0514  76.6112 0001399  42.7167 317.3953 15.58722447185838","INCLINATION":"53.0514"},{"PERIOD":"95.592","ECCENTRICITY":"0.00008340","FILE":"3929969","SITE":"AFETR","LAUNCH_DATE":"2020-02-17","MEAN_ELEMENT_THEORY":"SGP4","OBJECT_TYPE":"PAYLOAD","EPHEMERIS_TYPE":"0","MEAN_ANOMALY":"265.9433","ARG_OF_PERICENTER":"94.1651","TIME_SYSTEM":"UTC","REV_AT_EPOCH":"18396","DECAY_DATE":null,"CENTER_NAME":"EARTH","GP_ID":"233651144","NORAD_CAT_ID":"45214","REF_FRAME":"TEME","MEAN_MOTION_DDOT":"0.0000000000000","BSTAR":"0.00006526400000","RCS_SIZE":"LARGE","OBJECT_NAME":"STARLINK-1233","MEAN_MOTION":"15.06394581","PERIAPSIS":"546.653","OBJECT_ID":"2020-012AN","CLASSIFICATION_TYPE":"U","TLE_LINE2":"2 45214  53.0533 208.5373 0000834  94.1651 265.9433 15.06394581183967","INCLINATION":"53.0533","EPOCH":"2023-06-10T20:21:41.375520","ELEMENT_SET_NO":"999","SEMIMAJOR_AXIS":"6925.365","COUNTRY_CODE":"US","MEAN_MOTION_DOT":"0.00000691","APOAPSIS":"547.808","TLE_LINE1":"1 45214U 20012AN  23161.84839555  .00000691  00000-0  65264-4 0  9994","RA_OF_ASC_NODE":"208.5373"},{"MEAN_MOTION_DDOT":"0.0000000000000","BSTAR":"0.00006629200000","RCS_SIZE":"LARGE","OBJECT_NAME":"STARLINK-1245","MEAN_MOTION":"15.06396544","PERIAPSIS":"546.581","OBJECT_ID":"2020-012AP","CLASSIFICATION_TYPE":"U","TLE_LINE2":"2 45215  53.0531 208.5612 0000929  88.8314 271.2781 15.06396544183904","INCLINATION":"53.0531","EPOCH":"2023-06-10T20:17:44.528064","ELEMENT_SET_NO":"999","SEMIMAJOR_AXIS":"6925.359","MEAN_MOTION_DOT":"0.00000706","COUNTRY_CODE":"US","APOAPSIS":"547.868","TLE_LINE1":"1 45215U 20012AP  23161.84565426  .00000706  00000-0  66292-4 0  9997","RA_OF_ASC_NODE":"208.5612","PERIOD":"95.592","ECCENTRICITY":"0.00009290","FILE":"3929969","SITE":"AFETR","LAUNCH_DATE":"2020-02-17","MEAN_ELEMENT_THEORY":"SGP4","OBJECT_TYPE":"PAYLOAD","EPHEMERIS_TYPE":"0","MEAN_ANOMALY":"271.2781","ARG_OF_PERICENTER":"88.8314","TIME_SYSTEM":"UTC","REV_AT_EPOCH":"18390","DECAY_DATE":null,"CENTER_NAME":"EARTH","GP_ID":"233650890","NORAD_CAT_ID":"45215","REF_FRAME":"TEME"},{"TLE_LINE1":"1 45217U 20012AR  23161.81985109  .00007758  00000-0  53923-3 0  9990","RA_OF_ASC_NODE":"208.6741","APOAPSIS":"547.932","MEAN_MOTION_DOT":"0.00007758","COUNTRY_CODE":"US","SEMIMAJOR_AXIS":"6925.375","ELEMENT_SET_NO":"999","TLE_LINE2":"2 45217  53.0528 208.6741 0000999  96.5927 263.5175 15.06391217183968","INCLINATION":"53.0528","EPOCH":"2023-06-10T19:40:35.134176","CLASSIFICATION_TYPE":"U","OBJECT_ID":"2020-012AR","OBJECT_NAME":"STARLINK-1271","MEAN_MOTION":"15.06391217","PERIAPSIS":"546.549","RCS_SIZE":"LARGE","BSTAR":"0.00053923000000","MEAN_MOTION_DDOT":"0.0000000000000","NORAD_CAT_ID":"45217","REF_FRAME":"TEME","GP_ID":"233650143","CENTER_NAME":"EARTH","DECAY_DATE":null,"TIME_SYSTEM":"UTC","REV_AT_EPOCH":"18396","ARG_OF_PERICENTER":"96.5927","MEAN_ANOMALY":"263.5175","EPHEMERIS_TYPE":"0","LAUNCH_DATE":"2020-02-17","MEAN_ELEMENT_THEORY":"SGP4","OBJECT_TYPE":"PAYLOAD","FILE":"3929969","SITE":"AFETR","PERIOD":"95.593","ECCENTRICITY":"0.00009990"}];
